{"type": "FeatureCollection", "features": [ {"type": "Feature", "properties": {"norad_id": 30369, "name": "FENGYUN 1C DEB", "group": "fengyun-1c-debris", "lat": -54.26106319139914, "lon": 10.990197716456713, "alt_km": 922.8725419296579, "timestamp": "2025-12-27T17:24:57.681273+00:00", "meta": {"OBJECT_NAME": "FENGYUN 1C DEB", "OBJECT_ID": "1999-025ACG", "EPOCH": "2025-12-27T11:36:08.407296", "MEAN_MOTION": 14.12068296, "ECCENTRICITY": 0.0099896, "INCLINATION": 98.7218, "RA_OF_ASC_NODE": 358.4374, "ARG_OF_PERICENTER": 153.6078, "MEAN_ANOMALY": 0.0078, "EPHEMERIS_TYPE": 0, "CLASSIFICATION_TYPE": "U", "NORAD_CAT_ID": 30369, "ELEMENT_SET_NO": 999, "REV_AT_EPOCH": 97454, "BSTAR": 0.00019122, "MEAN_MOTION_DOT": 3.25e-06, "MEAN_MOTION_DDOT": 0}, "tle": {"line1": "1 30369U 99025ACG 25361.48343064  .00000325  00000+0  19122-3 0  9992", "line2": "2 30369  98.7218 358.4374 0099896 153.6078   0.0078 14.12068296974546"}}, "geometry": {"type": "Point", "coordinates": [10.990197716456713, -54.26106319139914]}}, {"type": "Feature", "properties": {"norad_id": 30370, "name": "FENGYUN 1C DEB", "group": "fengyun-1c-debris", "lat": -70.84657589087527, "lon": -149.33013135392807, "alt_km": 768.0909008381768, "timestamp": "2025-12-27T17:24:57.681283+00:00", "meta": {"OBJECT_NAME": "FENGYUN 1C DEB", "OBJECT_ID": "1999-025ACH", "EPOCH": "2025-12-27T02:56:31.229088", "MEAN_MOTION": 14.19226126, "ECCENTRICITY": 0.00997673, "INCLINATION": 99.0555, "RA_OF_ASC_NODE": 57.3868, "ARG_OF_PERICENTER": 275.9638, "MEAN_ANOMALY": 137.892, "EPHEMERIS_TYPE": 0, "CLASSIFICATION_TYPE": "U", "NORAD_CAT_ID": 30370, "ELEMENT_SET_NO": 999, "REV_AT_EPOCH": 97298, "BSTAR": 0.0014326407, "MEAN_MOTION_DOT": 3.109e-05, "MEAN_MOTION_DDOT": 0}, "tle": {"line1": "1 30370U 99025ACH 25361.12258367  .00003109  00000+0  14326-2 0  9999", "line2": "2 30370  99.0555  57.3868 0099767 275.9638 137.8920 14.19226126972982"}}, "geometry": {"type": "Point", "coordinates": [-149.33013135392807, -70.84657589087527]}}, {"type": "Feature", "properties": {"norad_id": 30371, "name": "FENGYUN 1C DEB", "group": "fengyun-1c-debris", "lat": 32.34505780719349, "lon": -130.00664323323912, "alt_km": 792.4776446815695, "timestamp": "2025-12-27T17:24:57.681293+00:00", "meta": {"OBJECT_NAME": "FENGYUN 1C DEB", "OBJECT_ID": "1999-025ACJ", "EPOCH": "2025-12-27T01:45:32.999040", "MEAN_MOTION": 14.30306206, "ECCENTRICITY": 0.00068905, "INCLINATION": 98.5747, "RA_OF_ASC_NODE": 43.8676, "ARG_OF_PERICENTER": 288.1247, "MEAN_ANOMALY": 101.8757, "EPHEMERIS_TYPE": 0, "CLASSIFICATION_TYPE": "U", "NORAD_CAT_ID": 30371, "ELEMENT_SET_NO": 999, "REV_AT_EPOCH": 98108, "BSTAR": 0.0011581614, "MEAN_MOTION_DOT": 2.964e-05, "MEAN_MOTION_DDOT": 0}, "tle": {"line1": "1 30371U 99025ACJ 25361.07329860  .00002964  00000+0  11582-2 0  9990", "line2": "2 30371  98.5747  43.8676 0006890 288.1247 101.8757 14.30306206981085"}}, "geometry": {"type": "Point", "coordinates": [-130.00664323323912, 32.34505780719349]}}, {"type": "Feature", "properties": {"norad_id": 30374, "name": "FENGYUN 1C DEB", "group": "fengyun-1c-debris", "lat": 67.79553121483761, "lon": 70.65426598120585, "alt_km": 654.0891898727377, "timestamp": "2025-12-27T17:24:57.681303+00:00", "meta": {"OBJECT_NAME": "FENGYUN 1C DEB", "OBJECT_ID": "1999-025ACM", "EPOCH": "2025-12-27T04:21:24.940224", "MEAN_MOTION": 14.61491547, "ECCENTRICITY": 0.00398654, "INCLINATION": 99.2725, "RA_OF_ASC_NODE": 226.4517, "ARG_OF_PERICENTER": 123.5174, "MEAN_ANOMALY": 5.5739, "EPHEMERIS_TYPE": 0, "CLASSIFICATION_TYPE": "U", "NORAD_CAT_ID": 30374, "ELEMENT_SET_NO": 999, "REV_AT_EPOCH": 99133, "BSTAR": 0.0018543313, "MEAN_MOTION_DOT": 9.25e-05, "MEAN_MOTION_DDOT": 0}, "tle": {"line1": "1 30374U 99025ACM 25361.18153866  .00009250  00000+0  18543-2 0  9995", "line2": "2 30374  99.2725 226.4517 0039865 123.5174   5.5739 14.61491547991330"}}, "geometry": {"type": "Point", "coordinates": [70.65426598120585, 67.79553121483761]}}, {"type": "Feature", "properties": {"norad_id": 30377, "name": "FENGYUN 1C DEB", "group": "fengyun-1c-debris", "lat": 24.569141375998715, "lon": -155.11252242008578, "alt_km": 865.582099965558, "timestamp": "2025-12-27T17:24:57.681314+00:00", "meta": {"OBJECT_NAME": "FENGYUN 1C DEB", "OBJECT_ID": "1999-025ACQ", "EPOCH": "2025-12-27T12:18:23.016960", "MEAN_MOTION": 13.99189326, "ECCENTRICITY": 0.0117877, "INCLINATION": 98.8928, "RA_OF_ASC_NODE": 20.5761, "ARG_OF_PERICENTER": 225.5674, "MEAN_ANOMALY": 298.8962, "EPHEMERIS_TYPE": 0, "CLASSIFICATION_TYPE": "U", "NORAD_CAT_ID": 30377, "ELEMENT_SET_NO": 999, "REV_AT_EPOCH": 96413, "BSTAR": 0.00056504, "MEAN_MOTION_DOT": 8.26e-06, "MEAN_MOTION_DDOT": 0}, "tle": {"line1": "1 30377U 99025ACQ 25361.51276640  .00000826  00000+0  56504-3 0  9991", "line2": "2 30377  98.8928  20.5761 0117877 225.5674 298.8962 13.99189326964137"}}, "geometry": {"type": "Point", "coordinates": [-155.11252242008578, 24.569141375998715]}}, {"type": "Feature", "properties": {"norad_id": 30379, "name": "FENGYUN 1C DEB", "group": "fengyun-1c-debris", "lat": 31.262289471151906, "lon": 10.651096775126458, "alt_km": 887.8342959510119, "timestamp": "2025-12-27T17:24:57.681324+00:00", "meta": {"OBJECT_NAME": "FENGYUN 1C DEB", "OBJECT_ID": "1999-025ACS", "EPOCH": "2025-12-27T07:07:23.723904", "MEAN_MOTION": 14.08049605, "ECCENTRICITY": 0.0035702, "INCLINATION": 98.7578, "RA_OF_ASC_NODE": 15.605, "ARG_OF_PERICENTER": 237.1474, "MEAN_ANOMALY": 141.7533, "EPHEMERIS_TYPE": 0, "CLASSIFICATION_TYPE": "U", "NORAD_CAT_ID": 30379, "ELEMENT_SET_NO": 999, "REV_AT_EPOCH": 97022, "BSTAR": 0.00023595, "MEAN_MOTION_DOT": 3.61e-06, "MEAN_MOTION_DDOT": 0}, "tle": {"line1": "1 30379U 99025ACS 25361.29680236  .00000361  00000+0  23595-3 0  9996", "line2": "2 30379  98.7578  15.6050 0035702 237.1474 141.7533 14.08049605970221"}}, "geometry": {"type": "Point", "coordinates": [10.651096775126458, 31.262289471151906]}}, {"type": "Feature", "properties": {"norad_id": 30380, "name": "FENGYUN 1C DEB", "group": "fengyun-1c-debris", "lat": -27.9232197232325, "lon": -134.53585357584453, "alt_km": 625.9134858484094, "timestamp": "2025-12-27T17:24:57.681335+00:00", "meta": {"OBJECT_NAME": "FENGYUN 1C DEB", "OBJECT_ID": "1999-025ACT", "EPOCH": "2025-12-26T02:23:34.239840", "MEAN_MOTION": 14.50703403, "ECCENTRICITY": 0.01780989, "INCLINATION": 98.9127, "RA_OF_ASC_NODE": 48.5131, "ARG_OF_PERICENTER": 177.1536, "MEAN_ANOMALY": 183.0715, "EPHEMERIS_TYPE": 0, "CLASSIFICATION_TYPE": "U", "NORAD_CAT_ID": 30380, "ELEMENT_SET_NO": 999, "REV_AT_EPOCH": 99759, "BSTAR": 0.00027594151, "MEAN_MOTION_DOT": 1.271e-05, "MEAN_MOTION_DDOT": 0}, "tle": {"line1": "1 30380U 99025ACT 25360.09970185  .00001271  00000+0  27594-3 0  9994", "line2": "2 30380  98.9127  48.5131 0178098 177.1536 183.0715 14.50703403997598"}}, "geometry": {"type": "Point", "coordinates": [-134.53585357584453, -27.9232197232325]}}, {"type": "Feature", "properties": {"norad_id": 30381, "name": "FENGYUN 1C DEB", "group": "fengyun-1c-debris", "lat": -58.84715115736211, "lon": 51.353433686319846, "alt_km": 858.4113160740217, "timestamp": "2025-12-27T17:24:57.681345+00:00", "meta": {"OBJECT_NAME": "FENGYUN 1C DEB", "OBJECT_ID": "1999-025ACU", "EPOCH": "2025-12-24T13:13:19.655616", "MEAN_MOTION": 14.12982436, "ECCENTRICITY": 0.00538965, "INCLINATION": 98.8127, "RA_OF_ASC_NODE": 33.3585, "ARG_OF_PERICENTER": 42.5981, "MEAN_ANOMALY": 317.9353, "EPHEMERIS_TYPE": 0, "CLASSIFICATION_TYPE": "U", "NORAD_CAT_ID": 30381, "ELEMENT_SET_NO": 999, "REV_AT_EPOCH": 92333, "BSTAR": 0.00093102658, "MEAN_MOTION_DOT": 1.716e-05, "MEAN_MOTION_DDOT": 0}, "tle": {"line1": "1 30381U 99025ACU 25358.55092194  .00001716  00000+0  93103-3 0  9991", "line2": "2 30381  98.8127  33.3585 0053896  42.5981 317.9353 14.12982436923330"}}, "geometry": {"type": "Point", "coordinates": [51.353433686319846, -58.84715115736211]}}, {"type": "Feature", "properties": {"norad_id": 30382, "name": "FENGYUN 1C DEB", "group": "fengyun-1c-debris", "lat": -48.46347513872685, "lon": -150.07621055197754, "alt_km": 800.5730865999167, "timestamp": "2025-12-27T17:24:57.681355+00:00", "meta": {"OBJECT_NAME": "FENGYUN 1C DEB", "OBJECT_ID": "1999-025ACV", "EPOCH": "2025-12-27T01:26:40.809120", "MEAN_MOTION": 14.25353136, "ECCENTRICITY": 0.01542703, "INCLINATION": 98.4982, "RA_OF_ASC_NODE": 38.9956, "ARG_OF_PERICENTER": 314.9149, "MEAN_ANOMALY": 103.1643, "EPHEMERIS_TYPE": 0, "CLASSIFICATION_TYPE": "U", "NORAD_CAT_ID": 30382, "ELEMENT_SET_NO": 999, "REV_AT_EPOCH": 97739, "BSTAR": 0.0010492345, "MEAN_MOTION_DOT": 2.756e-05, "MEAN_MOTION_DDOT": 0}, "tle": {"line1": "1 30382U 99025ACV 25361.06019455  .00002756  00000+0  10492-2 0  9995", "line2": "2 30382  98.4982  38.9956 0154270 314.9149 103.1643 14.25353136977394"}}, "geometry": {"type": "Point", "coordinates": [-150.07621055197754, -48.46347513872685]}}, {"type": "Feature", "properties": {"norad_id": 30385, "name": "FENGYUN 1C DEB", "group": "fengyun-1c-debris", "lat": -11.552966204306482, "lon": -158.57417051202057, "alt_km": 713.1748492195056, "timestamp": "2025-12-27T17:24:57.681366+00:00", "meta": {"OBJECT_NAME": "FENGYUN 1C DEB", "OBJECT_ID": "1999-025ACY", "EPOCH": "2025-12-26T21:04:29.078112", "MEAN_MOTION": 14.38815392, "ECCENTRICITY": 0.0124732, "INCLINATION": 99.0809, "RA_OF_ASC_NODE": 22.4027, "ARG_OF_PERICENTER": 247.7035, "MEAN_ANOMALY": 237.4095, "EPHEMERIS_TYPE": 0, "CLASSIFICATION_TYPE": "U", "NORAD_CAT_ID": 30385, "ELEMENT_SET_NO": 999, "REV_AT_EPOCH": 98972, "BSTAR": 0.00032365, "MEAN_MOTION_DOT": 1.035e-05, "MEAN_MOTION_DDOT": 0}, "tle": {"line1": "1 30385U 99025ACY 25360.87811433  .00001035  00000+0  32365-3 0  9995", "line2": "2 30385  99.0809  22.4027 0124732 247.7035 237.4095 14.38815392989729"}}, "geometry": {"type": "Point", "coordinates": [-158.57417051202057, -11.552966204306482]}}]}